[{"OBJECT_NAME":"STARLINK-32291","OBJECT_ID":"2024-251L","EPOCH":"2026-03-09T22:02:43.177056","MEAN_MOTION":15.30226619,"ECCENTRICITY":0.00012735,"INCLINATION":53.1627,"RA_OF_ASC_NODE":334.2309,"ARG_OF_PERICENTER":146.5987,"MEAN_ANOMALY":213.5094,"EPHEMERIS_TYPE":0,"CLASSIFICATION_TYPE":"U","NORAD_CAT_ID":62442,"ELEMENT_SET_NO":999,"REV_AT_EPOCH":6767,"BSTAR":0.0015797944,"MEAN_MOTION_DOT":0.00046763,"MEAN_MOTION_DDOT":0},{"OBJECT_NAME":"CZ-4B R\/B","OBJECT_ID":"2014-079B","EPOCH":"2026-03-09T22:52:27.338880","MEAN_MOTION":15.04904185,"ECCENTRICITY":0.01415279,"INCLINATION":98.4648,"RA_OF_ASC_NODE":154.7469,"ARG_OF_PERICENTER":308.4035,"MEAN_ANOMALY":50.4548,"EPHEMERIS_TYPE":0,"CLASSIFICATION_TYPE":"U","NORAD_CAT_ID":40337,"ELEMENT_SET_NO":999,"REV_AT_EPOCH":61279,"BSTAR":0.00019142184,"MEAN_MOTION_DOT":3.298e-5,"MEAN_MOTION_DDOT":0}]
